start=new Date('2022-04-15T00:00:00.000Z').valueOf();
sats=[{"OBJECT_NAME":"STARLINK-2705","MEAN_MOTION":"15.06392219","RA_OF_ASC_NODE":"29.5940","OBJECT_ID":"2021-044AL","MEAN_ANOMALY":"288.7911","MEAN_MOTION_DDOT":"0.0000000000000","INCLINATION":"53.0573","NORAD_CAT_ID":"48672","REF_FRAME":"TEME","MEAN_MOTION_DOT":"0.00003953","RCS_SIZE":"LARGE","GP_ID":"201225484","CENTER_NAME":"EARTH","LAUNCH_DATE":"2021-05-26","TLE_LINE2":"2 48672  53.0573  29.5940 0001471  71.3238 288.7911 15.06392219 49038","ARG_OF_PERICENTER":"71.3238","SITE":"AFETR","FILE":"3401567","ECCENTRICITY":"0.00014710","ELEMENT_SET_NO":"999","EPHEMERIS_TYPE":"0","TIME_SYSTEM":"UTC","PERIOD":"95.593","PERIAPSIS":"546.219","DECAY_DATE":null,"BSTAR":"0.00028416000000","COUNTRY_CODE":"US","REV_AT_EPOCH":"4903","TLE_LINE1":"1 48672U 21044AL  22104.48999350  .00003953  00000-0  28416-3 0  9998","EPOCH":"2022-04-14T11:45:35.438400","OBJECT_TYPE":"PAYLOAD","CLASSIFICATION_TYPE":"U","APOAPSIS":"548.256","MEAN_ELEMENT_THEORY":"SGP4","SEMIMAJOR_AXIS":"6925.372"},{"EPHEMERIS_TYPE":"0","TIME_SYSTEM":"UTC","PERIOD":"95.591","ECCENTRICITY":"0.00017000","ELEMENT_SET_NO":"999","REV_AT_EPOCH":"4903","COUNTRY_CODE":"US","BSTAR":"0.00043132000000","TLE_LINE1":"1 48673U 21044AM  22104.48630417  .00006151  00000-0  43132-3 0  9990","PERIAPSIS":"545.997","DECAY_DATE":null,"EPOCH":"2022-04-14T11:40:16.680288","OBJECT_TYPE":"PAYLOAD","APOAPSIS":"548.351","MEAN_ELEMENT_THEORY":"SGP4","SEMIMAJOR_AXIS":"6925.309","CLASSIFICATION_TYPE":"U","OBJECT_ID":"2021-044AM","OBJECT_NAME":"STARLINK-2711","MEAN_MOTION":"15.06412895","RA_OF_ASC_NODE":"29.6020","MEAN_MOTION_DDOT":"0.0000000000000","INCLINATION":"53.0565","NORAD_CAT_ID":"48673","MEAN_ANOMALY":"291.7742","RCS_SIZE":"LARGE","GP_ID":"201226236","CENTER_NAME":"EARTH","REF_FRAME":"TEME","MEAN_MOTION_DOT":"0.00006151","TLE_LINE2":"2 48673  53.0565  29.6020 0001700  68.3428 291.7742 15.06412895 49031","ARG_OF_PERICENTER":"68.3428","SITE":"AFETR","FILE":"3401567","LAUNCH_DATE":"2021-05-26"},{"MEAN_ANOMALY":"293.0135","MEAN_MOTION_DDOT":"0.0000000000000","INCLINATION":"53.0578","NORAD_CAT_ID":"48674","MEAN_MOTION":"15.06396817","OBJECT_NAME":"STARLINK-2712","RA_OF_ASC_NODE":"29.6209","OBJECT_ID":"2021-044AN","LAUNCH_DATE":"2021-05-26","ARG_OF_PERICENTER":"67.1034","TLE_LINE2":"2 48674  53.0578  29.6209 0001706  67.1034 293.0135 15.06396817 49037","SITE":"AFETR","FILE":"3401567","REF_FRAME":"TEME","MEAN_MOTION_DOT":"0.00001221","RCS_SIZE":"LARGE","CENTER_NAME":"EARTH","GP_ID":"201225986","PERIAPSIS":"546.042","DECAY_DATE":null,"BSTAR":"0.00010089000000","COUNTRY_CODE":"US","REV_AT_EPOCH":"4903","TLE_LINE1":"1 48674U 21044AN  22104.48261510  .00001221  00000-0  10089-3 0  9993","ELEMENT_SET_NO":"999","ECCENTRICITY":"0.00017060","EPHEMERIS_TYPE":"0","TIME_SYSTEM":"UTC","PERIOD":"95.592","CLASSIFICATION_TYPE":"U","APOAPSIS":"548.405","MEAN_ELEMENT_THEORY":"SGP4","SEMIMAJOR_AXIS":"6925.358","EPOCH":"2022-04-14T11:34:57.944640","OBJECT_TYPE":"PAYLOAD"},{"GP_ID":"201224734","CENTER_NAME":"EARTH","RCS_SIZE":"MEDIUM","MEAN_MOTION_DOT":"0.00002644","REF_FRAME":"TEME","FILE":"3401567","TLE_LINE2":"2 48675  53.0565  29.6454 0001648  66.0533 294.0629 15.06401851 49037","ARG_OF_PERICENTER":"66.0533","SITE":"AFETR","LAUNCH_DATE":"2021-05-26","OBJECT_ID":"2021-044AP","OBJECT_NAME":"STARLINK-2737","RA_OF_ASC_NODE":"29.6454","MEAN_MOTION":"15.06401851","INCLINATION":"53.0565","NORAD_CAT_ID":"48675","MEAN_MOTION_DDOT":"0.0000000000000","MEAN_ANOMALY":"294.0629","EPOCH":"2022-04-14T11:29:39.553728","OBJECT_TYPE":"PAYLOAD","SEMIMAJOR_AXIS":"6925.343","MEAN_ELEMENT_THEORY":"SGP4","APOAPSIS":"548.349","CLASSIFICATION_TYPE":"U","TIME_SYSTEM":"UTC","PERIOD":"95.592","EPHEMERIS_TYPE":"0","ELEMENT_SET_NO":"999","ECCENTRICITY":"0.00016480","BSTAR":"0.00019634000000","COUNTRY_CODE":"US","REV_AT_EPOCH":"4903","TLE_LINE1":"1 48675U 21044AP  22104.47893002  .00002644  00000-0  19634-3 0  9995","DECAY_DATE":null,"PERIAPSIS":"546.067"},{"TLE_LINE1":"1 48676U 21044AQ  22104.14351352  .00017740  00000-0  12060-2 0  9995","COUNTRY_CODE":"US","BSTAR":"0.00120600000000","REV_AT_EPOCH":"4898","PERIAPSIS":"545.846","DECAY_DATE":null,"EPHEMERIS_TYPE":"0","PERIOD":"95.590","TIME_SYSTEM":"UTC","ECCENTRICITY":"0.00018580","ELEMENT_SET_NO":"999","MEAN_ELEMENT_THEORY":"SGP4","APOAPSIS":"548.420","SEMIMAJOR_AXIS":"6925.268","CLASSIFICATION_TYPE":"U","OBJECT_TYPE":"PAYLOAD","EPOCH":"2022-04-14T03:26:39.568128","MEAN_MOTION_DDOT":"0.0000000000000","NORAD_CAT_ID":"48676","INCLINATION":"53.0570","MEAN_ANOMALY":"297.8960","OBJECT_ID":"2021-044AQ","RA_OF_ASC_NODE":"31.1499","OBJECT_NAME":"STARLINK-2746","MEAN_MOTION":"15.06426268","SITE":"AFETR","ARG_OF_PERICENTER":"62.2218","TLE_LINE2":"2 48676  53.0570  31.1499 0001858  62.2218 297.8960 15.06426268 48983","FILE":"3401567","LAUNCH_DATE":"2021-05-26","RCS_SIZE":"LARGE","CENTER_NAME":"EARTH","GP_ID":"201224984","REF_FRAME":"TEME","MEAN_MOTION_DOT":"0.00017740"},{"OBJECT_ID":"2021-044AR","OBJECT_NAME":"STARLINK-2719","RA_OF_ASC_NODE":"31.4584","MEAN_MOTION":"15.06410475","MEAN_MOTION_DDOT":"0.0000000000000","INCLINATION":"53.0570","NORAD_CAT_ID":"48677","MEAN_ANOMALY":"279.6788","RCS_SIZE":"LARGE","GP_ID":"201225736","CENTER_NAME":"EARTH","REF_FRAME":"TEME","MEAN_MOTION_DOT":"0.00007421","TLE_LINE2":"2 48677  53.0570  31.4584 0001550  80.4376 279.6788 15.06410475 48976","ARG_OF_PERICENTER":"80.4376","SITE":"AFETR","FILE":"3401567","LAUNCH_DATE":"2021-05-26","EPHEMERIS_TYPE":"0","TIME_SYSTEM":"UTC","PERIOD":"95.591","ELEMENT_SET_NO":"999","ECCENTRICITY":"0.00015500","BSTAR":"0.00051642000000","COUNTRY_CODE":"US","REV_AT_EPOCH":"4897","TLE_LINE1":"1 48677U 21044AR  22104.07348694  .00007421  00000-0  51642-3 0  9998","PERIAPSIS":"546.108","DECAY_DATE":null,"EPOCH":"2022-04-14T01:45:49.271616","OBJECT_TYPE":"PAYLOAD","MEAN_ELEMENT_THEORY":"SGP4","APOAPSIS":"548.255","SEMIMAJOR_AXIS":"6925.316","CLASSIFICATION_TYPE":"U"},{"OBJECT_NAME":"STARLINK-2615","MEAN_MOTION":"15.06413677","RA_OF_ASC_NODE":"30.8835","OBJECT_ID":"2021-044AS","MEAN_ANOMALY":"299.0878","NORAD_CAT_ID":"48678","INCLINATION":"53.0557","MEAN_MOTION_DDOT":"0.0000000000000","MEAN_MOTION_DOT":"0.00005092","REF_FRAME":"TEME","GP_ID":"201226487","CENTER_NAME":"EARTH","RCS_SIZE":"LARGE","LAUNCH_DATE":"2021-05-26","FILE":"3401567","SITE":"AFETR","TLE_LINE2":"2 48678  53.0557  30.8835 0001757  61.0287 299.0878 15.06413677 48994","ARG_OF_PERICENTER":"61.0287","ECCENTRICITY":"0.00017570","ELEMENT_SET_NO":"999","PERIOD":"95.591","TIME_SYSTEM":"UTC","EPHEMERIS_TYPE":"0","DECAY_DATE":null,"PERIAPSIS":"545.955","TLE_LINE1":"1 48678U 21044AS  22104.20247490  .00005092  00000-0  36037-3 0  9999","BSTAR":"0.00036037000000","COUNTRY_CODE":"US","REV_AT_EPOCH":"4899","OBJECT_TYPE":"PAYLOAD","EPOCH":"2022-04-14T04:51:33.831360","CLASSIFICATION_TYPE":"U","SEMIMAJOR_AXIS":"6925.307","MEAN_ELEMENT_THEORY":"SGP4","APOAPSIS":"548.388"},{"MEAN_MOTION_DOT":"0.00016403","REF_FRAME":"TEME","CENTER_NAME":"EARTH","GP_ID":"201225235","RCS_SIZE":"LARGE","LAUNCH_DATE":"2021-05-26","FILE":"3401567","TLE_LINE2":"2 48679  53.0557  30.9025 0001698  71.5874 288.5299 15.06413231 48995","ARG_OF_PERICENTER":"71.5874","SITE":"AFETR","RA_OF_ASC_NODE":"30.9025","OBJECT_NAME":"STARLINK-2648","MEAN_MOTION":"15.06413231","OBJECT_ID":"2021-044AT","MEAN_ANOMALY":"288.5299","INCLINATION":"53.0557","NORAD_CAT_ID":"48679","MEAN_MOTION_DDOT":"0.0000000000000","EPOCH":"2022-04-14T04:46:16.995648","OBJECT_TYPE":"PAYLOAD","CLASSIFICATION_TYPE":"U","SEMIMAJOR_AXIS":"6925.308","APOAPSIS":"548.349","MEAN_ELEMENT_THEORY":"SGP4","ECCENTRICITY":"0.00016980","ELEMENT_SET_NO":"999","TIME_SYSTEM":"UTC","PERIOD":"95.591","EPHEMERIS_TYPE":"0","DECAY_DATE":null,"PERIAPSIS":"545.997","COUNTRY_CODE":"US","BSTAR":"0.00111710000000","REV_AT_EPOCH":"4899","TLE_LINE1":"1 48679U 21044AT  22104.19880782  .00016403  00000-0  11171-2 0  9994"},{"EPOCH":"2022-04-14T01:29:53.868192","OBJECT_TYPE":"PAYLOAD","CLASSIFICATION_TYPE":"U","SEMIMAJOR_AXIS":"6925.321","APOAPSIS":"548.425","MEAN_ELEMENT_THEORY":"SGP4","ECCENTRICITY":"0.00017890","ELEMENT_SET_NO":"999","TIME_SYSTEM":"UTC","PERIOD":"95.592","EPHEMERIS_TYPE":"0","DECAY_DATE":null,"PERIAPSIS":"545.947","BSTAR":"0.00074446000000","COUNTRY_CODE":"US","REV_AT_EPOCH":"4987","TLE_LINE1":"1 48680U 21044AU  22104.06242903  .00010827  00000-0  74446-3 0  9998","MEAN_MOTION_DOT":"0.00010827","REF_FRAME":"TEME","GP_ID":"201228961","CENTER_NAME":"EARTH","RCS_SIZE":"LARGE","LAUNCH_DATE":"2021-05-26","FILE":"3401659","ARG_OF_PERICENTER":"64.3685","TLE_LINE2":"2 48680  53.0569  31.5114 0001789  64.3685 295.7488 15.06408955 49872","SITE":"AFETR","RA_OF_ASC_NODE":"31.5114","OBJECT_NAME":"STARLINK-2649","MEAN_MOTION":"15.06408955","OBJECT_ID":"2021-044AU","MEAN_ANOMALY":"295.7488","INCLINATION":"53.0569","NORAD_CAT_ID":"48680","MEAN_MOTION_DDOT":"0.0000000000000"},{"CLASSIFICATION_TYPE":"U","SEMIMAJOR_AXIS":"6925.303","APOAPSIS":"548.424","MEAN_ELEMENT_THEORY":"SGP4","EPOCH":"2022-04-14T23:12:53.957952","OBJECT_TYPE":"PAYLOAD","DECAY_DATE":null,"PERIAPSIS":"545.913","COUNTRY_CODE":"US","REV_AT_EPOCH":"4952","BSTAR":"0.00005665000000","TLE_LINE1":"1 48681U 21044AV  22104.96729118  .00000563  00000-0  56650-4 0  9990","ECCENTRICITY":"0.00018130","ELEMENT_SET_NO":"999","TIME_SYSTEM":"UTC","PERIOD":"95.591","EPHEMERIS_TYPE":"0","LAUNCH_DATE":"2021-05-26","FILE":"3401977","TLE_LINE2":"2 48681  53.0535 357.4363 0001813  85.6197 274.4999 15.06414845 49522","ARG_OF_PERICENTER":"85.6197","SITE":"AFETR","MEAN_MOTION_DOT":"0.00000563","REF_FRAME":"TEME","GP_ID":"201258475","CENTER_NAME":"EARTH","RCS_SIZE":"LARGE","MEAN_ANOMALY":"274.4999","INCLINATION":"53.0535","NORAD_CAT_ID":"48681","MEAN_MOTION_DDOT":"0.0000000000000","RA_OF_ASC_NODE":"357.4363","OBJECT_NAME":"STARLINK-2725","MEAN_MOTION":"15.06414845","OBJECT_ID":"2021-044AV"}];
